sat02980
1 02980U 67096A   20046.86563165  .00000020  00000-0  16626-4 0  9996
2 02980  99.2072 193.1917 0097883 283.4810  75.5494 14.59352364749435
